{
  "type": "FeatureCollection",
  "features": [
    {
      "type": "Feature",
      "properties": {
        "norad_id": 29914,
        "name": "FENGYUN 1C DEB",
        "group": "fengyun-1c-debris",
        "lat": -11.80106746531441,
        "lon": -174.16604218874593,
        "alt_km": 872.123748632358,
        "timestamp": "2025-12-04T21:36:16.145156+00:00",
        "meta_object_name": "FENGYUN 1C DEB",
        "meta_object_id": "1999-025HL",
        "meta_epoch": "2025-12-04T16:09:51.156000",
        "meta_mean_motion": 14.03126874,
        "meta_eccentricity": 0.00362862,
        "meta_inclination": 98.8456,
        "meta_ra_of_asc_node": 7.4781,
        "meta_arg_of_pericenter": 137.3914,
        "meta_mean_anomaly": 349.7199,
        "meta_ephemeris_type": 0,
        "meta_classification_type": "U",
        "meta_norad_cat_id": 29914,
        "meta_element_set_no": 999,
        "meta_rev_at_epoch": 96673,
        "meta_bstar": 0.00038887487,
        "meta_mean_motion_dot": 5.66e-06,
        "meta_mean_motion_ddot": 0,
        "tle_line1": "1 29914U 99025HL  25338.67350875  .00000566  00000+0  38887-3 0  9995",
        "tle_line2": "2 29914  98.8456   7.4781 0036286 137.3914 349.7199 14.03126874966736"
      },
      "geometry": {
        "type": "Point",
        "coordinates": [
          -174.16604218874593,
          -11.80106746531441
        ]
      }
    },
    {
      "type": "Feature",
      "properties": {
        "norad_id": 29916,
        "name": "FENGYUN 1C DEB",
        "group": "fengyun-1c-debris",
        "lat": 53.84933310230147,
        "lon": -14.158963838334138,
        "alt_km": 1184.5172639811408,
        "timestamp": "2025-12-04T21:36:16.145166+00:00",
        "meta_object_name": "FENGYUN 1C DEB",
        "meta_object_id": "1999-025HN",
        "meta_epoch": "2025-12-04T07:47:41.063712",
        "meta_mean_motion": 13.56968857,
        "meta_eccentricity": 0.02710368,
        "meta_inclination": 99.1953,
        "meta_ra_of_asc_node": 358.1125,
        "meta_arg_of_pericenter": 280.0767,
        "meta_mean_anomaly": 203.2522,
        "meta_ephemeris_type": 0,
        "meta_classification_type": "U",
        "meta_norad_cat_id": 29916,
        "meta_element_set_no": 999,
        "meta_rev_at_epoch": 93338,
        "meta_bstar": 0.0011132839,
        "meta_mean_motion_dot": 9.61e-06,
        "meta_mean_motion_ddot": 0,
        "tle_line1": "1 29916U 99025HN  25338.32478083  .00000961  00000+0  11133-2 0  9994",
        "tle_line2": "2 29916  99.1953 358.1125 0271036 280.0767 203.2522 13.56968857933389"
      },
      "geometry": {
        "type": "Point",
        "coordinates": [
          -14.158963838334138,
          53.84933310230147
        ]
      }
    },
    {
      "type": "Feature",
      "properties": {
        "norad_id": 29917,
        "name": "FENGYUN 1C DEB",
        "group": "fengyun-1c-debris",
        "lat": 54.54539201741168,
        "lon": 33.80873906428789,
        "alt_km": 839.0185327748559,
        "timestamp": "2025-12-04T21:36:16.145176+00:00",
        "meta_object_name": "FENGYUN 1C DEB",
        "meta_object_id": "1999-025HP",
        "meta_epoch": "2025-12-04T14:08:22.195392",
        "meta_mean_motion": 13.70384995,
        "meta_eccentricity": 0.02225203,
        "meta_inclination": 98.8765,
        "meta_ra_of_asc_node": 200.8446,
        "meta_arg_of_pericenter": 146.0101,
        "meta_mean_anomaly": 245.6213,
        "meta_ephemeris_type": 0,
        "meta_classification_type": "U",
        "meta_norad_cat_id": 29917,
        "meta_element_set_no": 999,
        "meta_rev_at_epoch": 94019,
        "meta_bstar": 0.001553319,
        "meta_mean_motion_dot": 1.597e-05,
        "meta_mean_motion_ddot": 0,
        "tle_line1": "1 29917U 99025HP  25338.58914578  .00001597  00000+0  15533-2 0  9991",
        "tle_line2": "2 29917  98.8765 200.8446 0222520 146.0101 245.6213 13.70384995940198"
      },
      "geometry": {
        "type": "Point",
        "coordinates": [
          33.80873906428789,
          54.54539201741168
        ]
      }
    },
    {
      "type": "Feature",
      "properties": {
        "norad_id": 29918,
        "name": "FENGYUN 1C DEB",
        "group": "fengyun-1c-debris",
        "lat": -26.43134820336608,
        "lon": 65.60229330688594,
        "alt_km": 776.7226151304358,
        "timestamp": "2025-12-04T21:36:16.145186+00:00",
        "meta_object_name": "FENGYUN 1C DEB",
        "meta_object_id": "1999-025HQ",
        "meta_epoch": "2025-12-04T05:13:48.548928",
        "meta_mean_motion": 14.33488433,
        "meta_eccentricity": 0.00126829,
        "meta_inclination": 98.856,
        "meta_ra_of_asc_node": 60.4596,
        "meta_arg_of_pericenter": 343.8619,
        "meta_mean_anomaly": 70.6169,
        "meta_ephemeris_type": 0,
        "meta_classification_type": "U",
        "meta_norad_cat_id": 29918,
        "meta_element_set_no": 999,
        "meta_rev_at_epoch": 97672,
        "meta_bstar": 0.0033121595,
        "meta_mean_motion_dot": 9.126e-05,
        "meta_mean_motion_ddot": 0,
        "tle_line1": "1 29918U 99025HQ  25338.21792302  .00009126  00000+0  33122-2 0  9991",
        "tle_line2": "2 29918  98.8560  60.4596 0012682 343.8619  70.6169 14.33488433976721"
      },
      "geometry": {
        "type": "Point",
        "coordinates": [
          65.60229330688594,
          -26.43134820336608
        ]
      }
    },
    {
      "type": "Feature",
      "properties": {
        "norad_id": 29919,
        "name": "FENGYUN 1C DEB",
        "group": "fengyun-1c-debris",
        "lat": -26.475635432094407,
        "lon": -50.18838578216562,
        "alt_km": 1045.1924785964966,
        "timestamp": "2025-12-04T21:36:16.145196+00:00",
        "meta_object_name": "FENGYUN 1C DEB",
        "meta_object_id": "1999-025HR",
        "meta_epoch": "2025-12-04T08:45:02.037024",
        "meta_mean_motion": 13.85118183,
        "meta_eccentricity": 0.01377741,
        "meta_inclination": 98.4788,
        "meta_ra_of_asc_node": 133.5877,
        "meta_arg_of_pericenter": 6.7687,
        "meta_mean_anomaly": 51.3332,
        "meta_ephemeris_type": 0,
        "meta_classification_type": "U",
        "meta_norad_cat_id": 29919,
        "meta_element_set_no": 999,
        "meta_rev_at_epoch": 95419,
        "meta_bstar": 0.00026422275,
        "meta_mean_motion_dot": 2.84e-06,
        "meta_mean_motion_ddot": 0,
        "tle_line1": "1 29919U 99025HR  25338.36460691  .00000284  00000+0  26422-3 0  9993",
        "tle_line2": "2 29919  98.4788 133.5877 0137774   6.7687  51.3332 13.85118183954197"
      },
      "geometry": {
        "type": "Point",
        "coordinates": [
          -50.18838578216562,
          -26.475635432094407
        ]
      }
    },
    {
      "type": "Feature",
      "properties": {
        "norad_id": 29920,
        "name": "FENGYUN 1C DEB",
        "group": "fengyun-1c-debris",
        "lat": -76.28765110659788,
        "lon": -128.78555757338827,
        "alt_km": 804.0556593070996,
        "timestamp": "2025-12-04T21:36:16.145206+00:00",
        "meta_object_name": "FENGYUN 1C DEB",
        "meta_object_id": "1999-025HS",
        "meta_epoch": "2025-12-04T13:25:06.746304",
        "meta_mean_motion": 14.03608319,
        "meta_eccentricity": 0.0125636,
        "meta_inclination": 98.391,
        "meta_ra_of_asc_node": 193.6772,
        "meta_arg_of_pericenter": 304.1431,
        "meta_mean_anomaly": 54.7874,
        "meta_ephemeris_type": 0,
        "meta_classification_type": "U",
        "meta_norad_cat_id": 29920,
        "meta_element_set_no": 999,
        "meta_rev_at_epoch": 96173,
        "meta_bstar": 0.0024402666,
        "meta_mean_motion_dot": 4.069e-05,
        "meta_mean_motion_ddot": 0,
        "tle_line1": "1 29920U 99025HS  25338.55910586  .00004069  00000+0  24403-2 0  9990",
        "tle_line2": "2 29920  98.3910 193.6772 0125636 304.1431  54.7874 14.03608319961734"
      },
      "geometry": {
        "type": "Point",
        "coordinates": [
          -128.78555757338827,
          -76.28765110659788
        ]
      }
    },
    {
      "type": "Feature",
      "properties": {
        "norad_id": 29921,
        "name": "FENGYUN 1C DEB",
        "group": "fengyun-1c-debris",
        "lat": 30.867674534804667,
        "lon": -20.061362389472034,
        "alt_km": 852.1613949599705,
        "timestamp": "2025-12-04T21:36:16.145216+00:00",
        "meta_object_name": "FENGYUN 1C DEB",
        "meta_object_id": "1999-025HT",
        "meta_epoch": "2025-12-03T18:59:48.439104",
        "meta_mean_motion": 14.06624033,
        "meta_eccentricity": 0.00464987,
        "meta_inclination": 98.7868,
        "meta_ra_of_asc_node": 344.1666,
        "meta_arg_of_pericenter": 94.3611,
        "meta_mean_anomaly": 86.5287,
        "meta_ephemeris_type": 0,
        "meta_classification_type": "U",
        "meta_norad_cat_id": 29921,
        "meta_element_set_no": 999,
        "meta_rev_at_epoch": 96750,
        "meta_bstar": 0.00050713263,
        "meta_mean_motion_dot": 8.07e-06,
        "meta_mean_motion_ddot": 0,
        "tle_line1": "1 29921U 99025HT  25337.79153286  .00000807  00000+0  50713-3 0  9992",
        "tle_line2": "2 29921  98.7868 344.1666 0046498  94.3611  86.5287 14.06624033967508"
      },
      "geometry": {
        "type": "Point",
        "coordinates": [
          -20.061362389472034,
          30.867674534804667
        ]
      }
    }
  ]
}